[{"OBJECT_NAME":"CUAVA-2","OBJECT_ID":"2024-149BM","EPOCH":"2026-03-09T11:16:09.234912","MEAN_MOTION":15.33611708,"ECCENTRICITY":0.00056694,"INCLINATION":97.3769,"RA_OF_ASC_NODE":149.9859,"ARG_OF_PERICENTER":291.2139,"MEAN_ANOMALY":68.8497,"EPHEMERIS_TYPE":0,"CLASSIFICATION_TYPE":"U","NORAD_CAT_ID":60527,"ELEMENT_SET_NO":999,"REV_AT_EPOCH":8687,"BSTAR":0.00047570318,"MEAN_MOTION_DOT":0.000154,"MEAN_MOTION_DDOT":0},{"OBJECT_NAME":"STARLINK-35664","OBJECT_ID":"2025-244T","EPOCH":"2026-03-09T22:00:01.999584","MEAN_MOTION":15.3016734,"ECCENTRICITY":0.00011347,"INCLINATION":53.1568,"RA_OF_ASC_NODE":229.0255,"ARG_OF_PERICENTER":68.1486,"MEAN_ANOMALY":228.3863,"EPHEMERIS_TYPE":0,"CLASSIFICATION_TYPE":"U","NORAD_CAT_ID":66223,"ELEMENT_SET_NO":999,"REV_AT_EPOCH":581,"BSTAR":0.0026446014,"MEAN_MOTION_DOT":0.0007872,"MEAN_MOTION_DDOT":0}]
